[{"OBJECT_NAME":"VSP RF B1","OBJECT_ID":"2024-043AR","EPOCH":"2026-03-09T22:40:29.479296","MEAN_MOTION":15.26694159,"ECCENTRICITY":0.00102608,"INCLINATION":97.5446,"RA_OF_ASC_NODE":204.7052,"ARG_OF_PERICENTER":220.7435,"MEAN_ANOMALY":139.3037,"EPHEMERIS_TYPE":0,"CLASSIFICATION_TYPE":"U","NORAD_CAT_ID":59137,"ELEMENT_SET_NO":999,"REV_AT_EPOCH":11187,"BSTAR":0.00024406819,"MEAN_MOTION_DOT":6.341e-5,"MEAN_MOTION_DDOT":0},{"OBJECT_NAME":"STARLINK-31587","OBJECT_ID":"2024-076G","EPOCH":"2026-03-08T20:36:15.484320","MEAN_MOTION":15.27566597,"ECCENTRICITY":0.00016366,"INCLINATION":43.0037,"RA_OF_ASC_NODE":13.8613,"ARG_OF_PERICENTER":266.6818,"MEAN_ANOMALY":93.3846,"EPHEMERIS_TYPE":0,"CLASSIFICATION_TYPE":"U","NORAD_CAT_ID":59570,"ELEMENT_SET_NO":999,"REV_AT_EPOCH":10639,"BSTAR":9.7555693e-5,"MEAN_MOTION_DOT":2.422e-5,"MEAN_MOTION_DDOT":0}]
